      2.10          N: GNSS NAV DATA                        RINEX VERSION / TYPE
fic2rin                                 02/12/2023 00:17:34 PGM / RUN BY / DATE
                                                            END OF HEADER
3  23  2 11  1 59 28.0 -.364523380995D-03  .432009983342D-11  .000000000000D+00
     .250000000000D+02  .108750000000D+02  .444482800207D-08  .119572321943D+01
     .506639480591D-06  .445862882771D-02  .514462590218D-05  .515372042084D+04
     .525568000000D+06 -.614672899246D-07 -.982243593977D+00  .353902578354D-07
     .977283609728D+00  .288375000000D+03  .101718758375D+01 -.820462746995D-08
     .166078346401D-09  .100000000000D+01  .224800000000D+04  .000000000000D+00
     .240000000000D+01  .000000000000D+00  .186264514923D-08  .250000000000D+02
     .518400000000D+06  .400000000000D+01
7  23  2 11  1 59 44.0  .243248417974D-03 -.693489710102D-11  .000000000000D+00
     .350000000000D+02  .272812500000D+02  .459090551536D-08  .175104710079D+01
     .137090682983D-05  .167156128446D-01  .119078904390D-04  .515360038567D+04
     .525584000000D+06 -.402331352234D-06  .111445997218D+01 -.154599547386D-06
     .950382162775D+00  .146468750000D+03 -.222536516460D+01 -.812426697976D-08
     .125719522437D-09  .100000000000D+01  .224800000000D+04  .000000000000D+00
     .240000000000D+01  .000000000000D+00 -.111758708954D-07  .350000000000D+02
     .518400000000D+06  .400000000000D+01
16 23  2 11 12  0  0.0 -.520539470017D-03  .159161572810D-11  .000000000000D+00
     .900000000000D+01  .526250000000D+02  .457876215239D-08 -.192446706116D+01
     .262632966042D-05  .133915672777D-01  .470504164696D-05  .515378217888D+04
     .561600000000D+06  .126659870148D-06  .224735079280D+01 -.160187482834D-06
     .965922560129D+00  .289843750000D+03  .762066226317D+00 -.811248077453D-08
     .195008122871D-09  .100000000000D+01  .224800000000D+04  .000000000000D+00
     .240000000000D+01  .000000000000D+00 -.102445483208D-07  .900000000000D+01
     .554400000000D+06  .400000000000D+01
14 23  2 11 12  0  0.0 -.296551734209D-04  .886757334229D-11  .000000000000D+00
     .110000000000D+02  .488750000000D+02  .500092259421D-08 -.250398076256D-01
     .237673521042D-05  .263970496599D-02  .534951686859D-05  .515366364670D+04
     .561600000000D+06  .223517417908D-07  .219197285985D+01  .260770320892D-07
     .949501202285D+00  .270312500000D+03 -.308213716711D+01 -.845606651483D-08
    -.214294640518D-10  .100000000000D+01  .224800000000D+04  .000000000000D+00
     .240000000000D+01  .000000000000D+00 -.791624188423D-08  .110000000000D+02
     .554400000000D+06  .400000000000D+01
19 23  2 11 12  0  0.0  .276263337582D-03  .511590769747D-11  .000000000000D+00
     .130000000000D+02 -.378437500000D+02  .414017245480D-08 -.639972321050D+00
    -.195764005184D-05  .909150054213D-02  .708736479282D-05  .515360430336D+04
     .561600000000D+06 -.182539224625D-06 -.297086698456D+01 -.122934579849D-06
     .974940829810D+00  .253531250000D+03  .223899337150D+01 -.805426406386D-08
    -.177864551630D-09  .100000000000D+01  .224800000000D+04  .000000000000D+00
     .240000000000D+01  .000000000000D+00 -.153668224812D-07  .130000000000D+02
     .554400000000D+06  .400000000000D+01
10 23  2 11 12  0  0.0 -.242502428591D-04 -.159161572810D-11  .000000000000D+00
     .102000000000D+03  .115937500000D+02  .448982987658D-08 -.772131311900D+00
     .752508640289D-06  .845215457957D-02  .561401247978D-05  .515368048096D+04
     .561600000000D+06  .124797224998D-06 -.985210267494D+00  .154599547386D-06
     .977048426629D+00  .278937500000D+03 -.244434067777D+01 -.819105547605D-08
     .332871008271D-09  .100000000000D+01  .224800000000D+04  .000000000000D+00
     .340000000000D+01  .000000000000D+00  .232830643654D-08  .102000000000D+03
     .554400000000D+06  .400000000000D+01
7  23  2 11 12  0  0.0  .242997426540D-03 -.693489710102D-11  .000000000000D+00
     .123000000000D+03  .269375000000D+02  .477305595980D-08  .721248406868D+00
     .170618295670D-05  .167187716579D-01  .111088156700D-04  .515359825134D+04
     .561600000000D+06 -.214204192162D-06  .111417448518D+01  .111758708954D-06
     .950383597897D+00  .163968750000D+03 -.222527857741D+01 -.834927635230D-08
    -.174650132022D-09  .100000000000D+01  .224800000000D+04  .000000000000D+00
     .240000000000D+01  .000000000000D+00 -.111758708954D-07  .123000000000D+03
     .554400000000D+06  .400000000000D+01
13 23  2 11 12  0  0.0  .474352855235D-03  .613908923697D-11  .000000000000D+00
     .680000000000D+02 -.530000000000D+02  .442447001122D-08  .307866202569D+01
    -.281818211079D-05  .677248381544D-02  .856630504131D-05  .515366884232D+04
     .561600000000D+06 -.223517417908D-07  .201321045578D+00 -.147148966789D-06
     .969879675999D+00  .217875000000D+03  .935713809425D+00 -.788461414011D-08
    -.265368196508D-09  .100000000000D+01  .224800000000D+04  .000000000000D+00
     .240000000000D+01  .000000000000D+00 -.111758708954D-07  .680000000000D+02
     .554400000000D+06  .400000000000D+01
11 23  2 11 12  0  0.0 -.101355835795D-03 -.100044417195D-10  .000000000000D+00
     .100000000000D+03  .550000000000D+01  .416517349619D-08  .278031853710D+01
     .417232513428D-06  .762991607189D-03  .921636819839D-05  .515370813751D+04
     .561600000000D+06 -.111758708954D-07 -.197900560537D+01 -.316649675369D-07
     .964715722934D+00  .202843750000D+03 -.267981394382D+01 -.792568727955D-08
     .241438628317D-09  .100000000000D+01  .224800000000D+04  .000000000000D+00
     .240000000000D+01  .000000000000D+00 -.884756445885D-08  .868000000000D+03
     .554400000000D+06  .400000000000D+01
31 23  2 11 12  0  0.0 -.208925455809D-03 -.102318153949D-11  .000000000000D+00
     .320000000000D+02  .384375000000D+02  .459554856590D-08  .128611927992D+00
     .208802521229D-05  .107797507662D-01  .108983367682D-04  .515365929031D+04
     .561600000000D+06  .102445483208D-06  .113371584059D+01  .124797224998D-06
     .954484717571D+00  .163718750000D+03  .499712196047D+00 -.816641159239D-08
    -.417874549009D-10  .100000000000D+01  .224800000000D+04  .000000000000D+00
     .240000000000D+01  .000000000000D+00 -.135041773319D-07  .320000000000D+02
     .554400000000D+06  .400000000000D+01
32 23  2 11 12  0  0.0 -.392822548747D-03 -.117097442853D-10  .000000000000D+00
     .340000000000D+02 -.607500000000D+02  .474805491840D-08 -.205286141666D+01
    -.307895243168D-05  .659340783022D-02  .759959220886D-05  .515370585632D+04
     .561600000000D+06  .931322574615D-07  .555060041164D-01  .186264514923D-07
     .959650060408D+00  .230781250000D+03 -.225845649152D+01 -.808355099806D-08
    -.202865593023D-09  .100000000000D+01  .224800000000D+04  .000000000000D+00
     .240000000000D+01  .000000000000D+00  .465661287308D-09  .340000000000D+02
     .554400000000D+06  .400000000000D+01
27 23  2 11 12  0  0.0  .104974023998D-03 -.909494701773D-11  .000000000000D+00
     .280000000000D+02 -.466875000000D+02  .431910847963D-08 -.272925175789D+01
    -.243447721004D-05  .113130700774D-01  .651553273201D-05  .515366284943D+04
     .561600000000D+06  .260770320892D-07 -.308037586056D+01 -.931322574615D-07
     .969280943128D+00  .259125000000D+03  .696974281788D+00 -.798997567170D-08
    -.245010205659D-09  .100000000000D+01  .224800000000D+04  .000000000000D+00
     .240000000000D+01  .000000000000D+00  .186264514923D-08  .280000000000D+02
     .554400000000D+06  .400000000000D+01
17 23  2 11 12  0  0.0  .699335709214D-03  .250111042988D-11  .000000000000D+00
     .240000000000D+02 -.349687500000D+02  .410445668138D-08 -.277787875547D+01
    -.173412263393D-05  .136722672032D-01  .642240047455D-05  .515371341705D+04
     .561600000000D+06  .165775418282D-06 -.301546283530D+01  .204890966415D-07
     .975934976272D+00  .263250000000D+03 -.142145566593D+01 -.772996484121D-08
    -.249653256203D-09  .100000000000D+01  .224800000000D+04  .000000000000D+00
     .240000000000D+01  .000000000000D+00 -.111758708954D-07  .240000000000D+02
     .554400000000D+06  .400000000000D+01
29 23  2 11 12  0  0.0 -.585523433983D-03 -.204636307899D-11  .000000000000D+00
     .100000000000D+03 -.397187500000D+02  .417195949314D-08 -.271086230417D+01
    -.206008553505D-05  .218377111014D-02  .718049705029D-05  .515358091545D+04
     .561600000000D+06 -.335276126862D-07 -.300163320945D+01  .279396772385D-07
     .978139728406D+00  .249750000000D+03  .239929594378D+01 -.795068832094D-08
    -.306798493674D-09  .100000000000D+01  .224800000000D+04  .000000000000D+00
     .340000000000D+01  .000000000000D+00 -.102445483208D-07  .100000000000D+03
     .554400000000D+06  .400000000000D+01
24 23  2 11 12  0  0.0 -.691548921168D-04 -.160298441187D-10  .000000000000D+00
     .880000000000D+02  .180625000000D+02  .508021161121D-08  .159551038791D+01
     .907108187675D-06  .137123354943D-01  .109728425741D-04  .515366690445D+04
     .561600000000D+06 -.331550836563D-06  .102528752416D+01  .372529029846D-08
     .934011266827D+00  .157312500000D+03  .883854390483D+00 -.831641784076D-08
    -.742888087128D-10  .100000000000D+01  .224800000000D+04  .000000000000D+00
     .240000000000D+01  .000000000000D+00  .232830643654D-08  .880000000000D+02
     .554400000000D+06  .400000000000D+01
15 23  2 11 12  0  0.0  .125127844512D-04  .329691829393D-11  .000000000000D+00
     .680000000000D+02 -.624687500000D+02  .537986695020D-08  .256950313270D+01
    -.336952507496D-05  .147507488728D-01  .632554292679D-05  .515367421150D+04
     .561600000000D+06  .540167093277D-07 -.727714627664D-01 -.214204192162D-06
     .932145804894D+00  .240187500000D+03  .117807644972D+01 -.826355849609D-08
    -.257867884090D-09  .100000000000D+01  .224800000000D+04  .000000000000D+00
     .240000000000D+01  .000000000000D+00 -.107102096081D-07  .680000000000D+02
     .554400000000D+06  .400000000000D+01
